[{"OBJECT_NAME":"CHECKMATE 10","OBJECT_ID":"2023-133F","EPOCH":"2026-03-09T14:36:16.908192","MEAN_MOTION":13.85465032,"ECCENTRICITY":0.0005039,"INCLINATION":80.9974,"RA_OF_ASC_NODE":103.0212,"ARG_OF_PERICENTER":278.4958,"MEAN_ANOMALY":81.5627,"EPHEMERIS_TYPE":0,"CLASSIFICATION_TYPE":"U","NORAD_CAT_ID":57762,"ELEMENT_SET_NO":999,"REV_AT_EPOCH":12724,"BSTAR":4.9049e-5,"MEAN_MOTION_DOT":6.7e-7,"MEAN_MOTION_DDOT":0},{"OBJECT_NAME":"FENGYUN 1C DEB","OBJECT_ID":"1999-025BUK","EPOCH":"2026-03-02T14:00:23.009760","MEAN_MOTION":14.24148099,"ECCENTRICITY":0.0231482,"INCLINATION":98.9795,"RA_OF_ASC_NODE":109.6925,"ARG_OF_PERICENTER":125.0525,"MEAN_ANOMALY":237.2607,"EPHEMERIS_TYPE":0,"CLASSIFICATION_TYPE":"U","NORAD_CAT_ID":31447,"ELEMENT_SET_NO":999,"REV_AT_EPOCH":65988,"BSTAR":0.00023507,"MEAN_MOTION_DOT":6.65e-6,"MEAN_MOTION_DDOT":0}]
